ONEWEB-0509             
1 54127U 22138Q   23334.95713315  .00000028  00000+0  38131-4 0  9993
2 54127  87.9178 129.9293 0001304  93.9649 266.1633 13.19726833 55116
ONEWEB-0510             
1 54128U 22138R   23334.89922365  .00000038  00000+0  61270-4 0  9995
2 54128  87.9241  99.3992 0001425 117.1748 242.9531 13.20773587 57512
ONEWEB-0511             
1 54129U 22138S   23334.95398986  .00000079  00000+0  16470-3 0  9995
2 54129  87.9179 129.9313 0001485  75.2113 284.9184 13.19719957 55142
ONEWEB-0512             
1 54130U 22138T   23334.94607536  .00000073  00000+0  15007-3 0  9999
2 54130  87.9188 129.9335 0000936  84.3459 275.7781 13.19727195 55113
ONEWEB-0513             
1 54131U 22138U   23334.46197122  .00000085  00000+0  18021-3 0  9994
2 54131  87.9177 130.0316 0001035  65.5502 294.5739 13.19725647 54936
ONEWEB-0514             
1 54132U 22138V   23334.50696147 -.00000079  00000+0 -22845-3 0  9995
2 54132  87.9181 130.0234 0001499  90.9923 269.1381 13.19724599 55076
ONEWEB-0515             
1 54133U 22138W   23334.88659153 -.00000031  00000+0 -10892-3 0  9990
2 54133  87.9189  99.4020 0002521 119.0551 241.0835 13.20772770 57502
ONEWEB-0516             
1 54134U 22138X   23334.93660524  .00000104  00000+0  22769-3 0  9996
2 54134  87.9188 129.9353 0001388  98.5647 261.5643 13.19725496 55139
